[
    {
        "model": "virtumarketapi.market",
        "pk": 1,
        "fields": {
            "name": "Nashville Farmers' Market",
            "zip_code": 37208
        }
    },
    {
        "model": "virtumarketapi.market",
        "pk": 2,
        "fields": {
            "name": "Hip Donelson Farmers' Market",
            "zip_code": 37214
        }
    },
    {
        "model": "virtumarketapi.market",
        "pk": 3,
        "fields": {
            "name": "Richland Park Farmers' Market",
            "zip_code": 37209
        }
    },
    {
        "model": "virtumarketapi.market",
        "pk": 4,
        "fields": {
            "name": "Rutherford County Farmers' Market",
            "zip_code": 37129
        }
    },
    {
        "model": "virtumarketapi.market",
        "pk": 5,
        "fields": {
            "name": "East Nashville Farmers' Market",
            "zip_code": 37206
        }
    },
    {
        "model": "virtumarketapi.market",
        "pk": 6,
        "fields": {
            "name": "12 South Farmers' Market",
            "zip_code": 37212
        }
    },
    {
        "model": "virtumarketapi.market",
        "pk": 7,
        "fields": {
            "name": "Franklin Farmers' Market",
            "zip_code": 37064
        }
    },
    {
        "model": "virtumarketapi.market",
        "pk": 8,
        "fields": {
            "name": "Nolensville Farmers' Market",
            "zip_code": 37135
        }
    },
    {
        "model": "virtumarketapi.market",
        "pk": 9,
        "fields": {
            "name": "Brentwood Farmers' Market",
            "zip_code": 37027
        }
    },
    {
        "model": "virtumarketapi.market",
        "pk": 10,
        "fields": {
            "name": "Old Hickory Village Farmers' Market",
            "zip_code": 37138
        }
    }
]